{
  "norad_id": 68120,
  "name": "STARLINK-36868",
  "history": [
    {
      "epoch": "2026-03-28T21:12:16.962624",
      "apogee_km": 344.45538413856957,
      "perigee_km": 343.537812902372,
      "latitude_deg": 28.26471028797636,
      "longitude_deg": -3.1811526399105787,
      "semi_major_axis_km": 6722.1335985204705,
      "eccentricity": 6.825e-05,
      "inclination_deg": 97.2848,
      "raan_deg": 48.9997,
      "arg_perigee_deg": 68.9743,
      "mean_anomaly_deg": 291.1595,
      "mean_motion_rev_day": 15.7522303
    },
    {
      "epoch": "2026-03-29T03:18:11.708064",
      "apogee_km": 345.51888020635397,
      "perigee_km": 342.22912802094015,
      "latitude_deg": 46.945465916923034,
      "longitude_deg": 21.213008960010484,
      "semi_major_axis_km": 6722.011004113647,
      "eccentricity": 0.0002447,
      "inclination_deg": 97.285,
      "raan_deg": 49.2667,
      "arg_perigee_deg": 107.2697,
      "mean_anomaly_deg": 252.8837,
      "mean_motion_rev_day": 15.75266123
    }
  ]
}